start=new Date('2022-10-14T00:00:00.000Z').valueOf();
sats=[{"MEAN_ANOMALY":"232.7656","PERIOD":"91.541","TLE_LINE2":"2 53933  53.2173 159.1570 0001152  92.4327 232.7656 15.73058235  1304","INCLINATION":"53.2173","TLE_LINE1":"1 53933U 22119AZ  22286.91667824  .00234336  00000-0  16378-2 0  9999","OBJECT_TYPE":"PAYLOAD","REF_FRAME":"TEME","GP_ID":"215030208","ECCENTRICITY":"0.00011520","ELEMENT_SET_NO":"999","EPOCH":"2022-10-13T22:00:00.999936","BSTAR":"0.00163780000000","OBJECT_NAME":"STARLINK-4782","MEAN_MOTION":"15.73058235","RCS_SIZE":"LARGE","APOAPSIS":"350.939","MEAN_MOTION_DOT":"0.00234336","NORAD_CAT_ID":"53933","TIME_SYSTEM":"UTC","MEAN_ELEMENT_THEORY":"SGP4","RA_OF_ASC_NODE":"159.1570","LAUNCH_DATE":"2022-09-24","CENTER_NAME":"EARTH","MEAN_MOTION_DDOT":"0.0000000000000","CLASSIFICATION_TYPE":"U","DECAY_DATE":null,"ARG_OF_PERICENTER":"92.4327","COUNTRY_CODE":"US","EPHEMERIS_TYPE":"0","OBJECT_ID":"2022-119AZ","FILE":"3609636","REV_AT_EPOCH":"130","SEMIMAJOR_AXIS":"6728.299","PERIAPSIS":"349.389","SITE":"AFETR"},{"REV_AT_EPOCH":"130","FILE":"3609636","EPHEMERIS_TYPE":"0","OBJECT_ID":"2022-119BA","SITE":"AFETR","PERIAPSIS":"348.807","SEMIMAJOR_AXIS":"6727.883","DECAY_DATE":null,"CLASSIFICATION_TYPE":"U","MEAN_MOTION_DDOT":"0.0000000000000","COUNTRY_CODE":"US","ARG_OF_PERICENTER":"83.9765","MEAN_ELEMENT_THEORY":"SGP4","MEAN_MOTION_DOT":"-0.00000461","TIME_SYSTEM":"UTC","NORAD_CAT_ID":"53934","LAUNCH_DATE":"2022-09-24","CENTER_NAME":"EARTH","RA_OF_ASC_NODE":"159.1504","APOAPSIS":"350.690","BSTAR":"0.00000113290000","OBJECT_NAME":"STARLINK-4775","EPOCH":"2022-10-13T22:00:00.999936","MEAN_MOTION":"15.73204173","RCS_SIZE":"LARGE","GP_ID":"215029302","REF_FRAME":"TEME","ELEMENT_SET_NO":"999","ECCENTRICITY":"0.00013990","OBJECT_TYPE":"PAYLOAD","TLE_LINE1":"1 53934U 22119BA  22286.91667824 -.00000461  00000-0  11329-5 0  9995","TLE_LINE2":"2 53934  53.2173 159.1504 0001399  83.9765 243.5342 15.73204173  1302","INCLINATION":"53.2173","MEAN_ANOMALY":"243.5342","PERIOD":"91.533"},{"OBJECT_NAME":"STARLINK-5000","BSTAR":"0.00259950000000","EPOCH":"2022-10-13T22:00:00.999936","RCS_SIZE":"LARGE","MEAN_MOTION":"15.72972140","GP_ID":"215030056","REF_FRAME":"TEME","ELEMENT_SET_NO":"999","ECCENTRICITY":"0.00010520","OBJECT_TYPE":"PAYLOAD","TLE_LINE1":"1 53935U 22119BB  22286.91667824  .00377404  00000-0  25995-2 0  9990","INCLINATION":"53.2174","TLE_LINE2":"2 53935  53.2174 159.1486 0001052  90.6252 238.1943 15.72972140  1307","MEAN_ANOMALY":"238.1943","PERIOD":"91.546","REV_AT_EPOCH":"130","FILE":"3609636","EPHEMERIS_TYPE":"0","OBJECT_ID":"2022-119BB","SITE":"AFETR","PERIAPSIS":"349.702","SEMIMAJOR_AXIS":"6728.545","DECAY_DATE":null,"CLASSIFICATION_TYPE":"U","MEAN_MOTION_DDOT":"0.0000000000000","COUNTRY_CODE":"US","ARG_OF_PERICENTER":"90.6252","MEAN_ELEMENT_THEORY":"SGP4","TIME_SYSTEM":"UTC","NORAD_CAT_ID":"53935","MEAN_MOTION_DOT":"0.00377404","CENTER_NAME":"EARTH","LAUNCH_DATE":"2022-09-24","RA_OF_ASC_NODE":"159.1486","APOAPSIS":"351.118"},{"PERIOD":"91.544","MEAN_ANOMALY":"231.5557","TLE_LINE2":"2 53936  53.2173 159.1502 0000807  96.6444 231.5557 15.73019392  1302","INCLINATION":"53.2173","TLE_LINE1":"1 53936U 22119BC  22286.91667824  .00296761  00000-0  20608-2 0  9993","OBJECT_TYPE":"PAYLOAD","ECCENTRICITY":"0.00008070","ELEMENT_SET_NO":"999","REF_FRAME":"TEME","GP_ID":"215029470","MEAN_MOTION":"15.73019392","RCS_SIZE":"LARGE","EPOCH":"2022-10-13T22:00:00.999936","BSTAR":"0.00206080000000","OBJECT_NAME":"STARLINK-4791","APOAPSIS":"350.818","RA_OF_ASC_NODE":"159.1502","CENTER_NAME":"EARTH","LAUNCH_DATE":"2022-09-24","MEAN_MOTION_DOT":"0.00296761","NORAD_CAT_ID":"53936","TIME_SYSTEM":"UTC","MEAN_ELEMENT_THEORY":"SGP4","ARG_OF_PERICENTER":"96.6444","COUNTRY_CODE":"US","MEAN_MOTION_DDOT":"0.0000000000000","CLASSIFICATION_TYPE":"U","DECAY_DATE":null,"PERIAPSIS":"349.732","SEMIMAJOR_AXIS":"6728.410","SITE":"AFETR","EPHEMERIS_TYPE":"0","OBJECT_ID":"2022-119BC","REV_AT_EPOCH":"130","FILE":"3609636"},{"TLE_LINE1":"1 53937U 22119BD  22286.91667824  .00243515  00000-0  17003-2 0  9998","OBJECT_TYPE":"PAYLOAD","TLE_LINE2":"2 53937  53.2175 159.1486 0001878  48.4207 280.9530 15.73052817  1305","INCLINATION":"53.2175","PERIOD":"91.542","MEAN_ANOMALY":"280.9530","OBJECT_NAME":"STARLINK-4765","BSTAR":"0.00170030000000","EPOCH":"2022-10-13T22:00:00.999936","RCS_SIZE":"LARGE","MEAN_MOTION":"15.73052817","GP_ID":"215030461","REF_FRAME":"TEME","ELEMENT_SET_NO":"999","ECCENTRICITY":"0.00018780","MEAN_ELEMENT_THEORY":"SGP4","NORAD_CAT_ID":"53937","TIME_SYSTEM":"UTC","MEAN_MOTION_DOT":"0.00243515","LAUNCH_DATE":"2022-09-24","CENTER_NAME":"EARTH","RA_OF_ASC_NODE":"159.1486","APOAPSIS":"351.443","REV_AT_EPOCH":"130","FILE":"3609636","OBJECT_ID":"2022-119BD","EPHEMERIS_TYPE":"0","SITE":"AFETR","SEMIMAJOR_AXIS":"6728.315","PERIAPSIS":"348.916","DECAY_DATE":null,"CLASSIFICATION_TYPE":"U","MEAN_MOTION_DDOT":"0.0000000000000","COUNTRY_CODE":"US","ARG_OF_PERICENTER":"48.4207"},{"INCLINATION":"53.2172","TLE_LINE2":"2 53964  53.2172  52.2561 0001871  27.7191  92.3342 15.75036478  1307","PERIOD":"91.426","MEAN_ANOMALY":"92.3342","TLE_LINE1":"1 53964U 22125A   22286.91667824 -.01195110  00000-0 -88625-2 0  9993","OBJECT_TYPE":"PAYLOAD","GP_ID":"215029722","REF_FRAME":"TEME","ECCENTRICITY":"0.00018710","ELEMENT_SET_NO":"999","OBJECT_NAME":"STARLINK-4633","BSTAR":"-0.00886250000000","EPOCH":"2022-10-13T22:00:00.999936","RCS_SIZE":null,"MEAN_MOTION":"15.75036478","APOAPSIS":"345.787","MEAN_ELEMENT_THEORY":"SGP4","TIME_SYSTEM":"UTC","NORAD_CAT_ID":"53964","MEAN_MOTION_DOT":"-0.01195110","LAUNCH_DATE":"2022-10-05","CENTER_NAME":"EARTH","RA_OF_ASC_NODE":"52.2561","CLASSIFICATION_TYPE":"U","DECAY_DATE":null,"MEAN_MOTION_DDOT":"0.0000000000000","COUNTRY_CODE":"US","ARG_OF_PERICENTER":"27.7191","FILE":"3609636","REV_AT_EPOCH":"130","OBJECT_ID":"2022-125A","EPHEMERIS_TYPE":"0","SITE":"AFWTR","PERIAPSIS":"343.272","SEMIMAJOR_AXIS":"6722.664"},{"OBJECT_TYPE":"PAYLOAD","TLE_LINE1":"1 53965U 22125B   22286.91667824 -.01194881  00000-0 -88544-2 0  9998","MEAN_ANOMALY":"90.9700","PERIOD":"91.425","TLE_LINE2":"2 53965  53.2172  52.2547 0001776  29.6363  90.9700 15.75053404  1308","INCLINATION":"53.2172","RCS_SIZE":null,"MEAN_MOTION":"15.75053404","EPOCH":"2022-10-13T22:00:00.999936","OBJECT_NAME":"STARLINK-4578","BSTAR":"-0.00885440000000","ECCENTRICITY":"0.00017760","ELEMENT_SET_NO":"999","REF_FRAME":"TEME","GP_ID":"215030310","RA_OF_ASC_NODE":"52.2547","LAUNCH_DATE":"2022-10-05","CENTER_NAME":"EARTH","NORAD_CAT_ID":"53965","TIME_SYSTEM":"UTC","MEAN_MOTION_DOT":"-0.01194881","MEAN_ELEMENT_THEORY":"SGP4","APOAPSIS":"345.675","SEMIMAJOR_AXIS":"6722.616","PERIAPSIS":"343.287","SITE":"AFWTR","OBJECT_ID":"2022-125B","EPHEMERIS_TYPE":"0","REV_AT_EPOCH":"130","FILE":"3609636","ARG_OF_PERICENTER":"29.6363","COUNTRY_CODE":"US","MEAN_MOTION_DDOT":"0.0000000000000","DECAY_DATE":null,"CLASSIFICATION_TYPE":"U"},{"CENTER_NAME":"EARTH","LAUNCH_DATE":"2022-10-05","RA_OF_ASC_NODE":"52.2539","MEAN_ELEMENT_THEORY":"SGP4","MEAN_MOTION_DOT":"-0.01193911","TIME_SYSTEM":"UTC","NORAD_CAT_ID":"53966","APOAPSIS":"345.612","SITE":"AFWTR","PERIAPSIS":"343.194","SEMIMAJOR_AXIS":"6722.538","FILE":"3609636","REV_AT_EPOCH":"130","EPHEMERIS_TYPE":"0","OBJECT_ID":"2022-125C","COUNTRY_CODE":"US","ARG_OF_PERICENTER":"27.2088","CLASSIFICATION_TYPE":"U","DECAY_DATE":null,"MEAN_MOTION_DDOT":"0.0000000000000","OBJECT_TYPE":"PAYLOAD","TLE_LINE1":"1 53966U 22125C   22286.91667824 -.01193911  00000-0 -88355-2 0  9992","INCLINATION":"53.2172","TLE_LINE2":"2 53966  53.2172  52.2539 0001799  27.2088  93.9219 15.75080875  1303","MEAN_ANOMALY":"93.9219","PERIOD":"91.424","MEAN_MOTION":"15.75080875","RCS_SIZE":null,"BSTAR":"-0.00883550000000","OBJECT_NAME":"STARLINK-4635","EPOCH":"2022-10-13T22:00:00.999936","ELEMENT_SET_NO":"999","ECCENTRICITY":"0.00017990","GP_ID":"215029890","REF_FRAME":"TEME"},{"SITE":"AFWTR","SEMIMAJOR_AXIS":"6722.466","PERIAPSIS":"343.104","FILE":"3609636","REV_AT_EPOCH":"130","EPHEMERIS_TYPE":"0","OBJECT_ID":"2022-125D","COUNTRY_CODE":"US","ARG_OF_PERICENTER":"26.2314","CLASSIFICATION_TYPE":"U","DECAY_DATE":null,"MEAN_MOTION_DDOT":"0.0000000000000","CENTER_NAME":"EARTH","LAUNCH_DATE":"2022-10-05","RA_OF_ASC_NODE":"52.2526","MEAN_ELEMENT_THEORY":"SGP4","MEAN_MOTION_DOT":"-0.01193360","NORAD_CAT_ID":"53967","TIME_SYSTEM":"UTC","APOAPSIS":"345.559","MEAN_MOTION":"15.75106042","RCS_SIZE":null,"BSTAR":"-0.00882100000000","OBJECT_NAME":"STARLINK-4634","EPOCH":"2022-10-13T22:00:00.999936","ELEMENT_SET_NO":"999","ECCENTRICITY":"0.00018260","GP_ID":"215030211","REF_FRAME":"TEME","OBJECT_TYPE":"PAYLOAD","TLE_LINE1":"1 53967U 22125D   22286.91667824 -.01193360  00000-0 -88210-2 0  9991","INCLINATION":"53.2172","TLE_LINE2":"2 53967  53.2172  52.2526 0001826  26.2314  95.4293 15.75106042  1306","PERIOD":"91.422","MEAN_ANOMALY":"95.4293"},{"OBJECT_TYPE":"PAYLOAD","TLE_LINE1":"1 53968U 22125E   22286.91667824 -.01194544  00000-0 -88015-2 0  9990","MEAN_ANOMALY":"95.0700","PERIOD":"91.418","TLE_LINE2":"2 53968  53.2173  52.2495 0001874  28.1802  95.0700 15.75181048  1307","INCLINATION":"53.2173","MEAN_MOTION":"15.75181048","RCS_SIZE":null,"EPOCH":"2022-10-13T22:00:00.999936","BSTAR":"-0.00880150000000","OBJECT_NAME":"STARLINK-4629","ECCENTRICITY":"0.00018740","ELEMENT_SET_NO":"999","REF_FRAME":"TEME","GP_ID":"215029305","RA_OF_ASC_NODE":"52.2495","CENTER_NAME":"EARTH","LAUNCH_DATE":"2022-10-05","MEAN_MOTION_DOT":"-0.01194544","TIME_SYSTEM":"UTC","NORAD_CAT_ID":"53968","MEAN_ELEMENT_THEORY":"SGP4","APOAPSIS":"345.378","SEMIMAJOR_AXIS":"6722.253","PERIAPSIS":"342.858","SITE":"AFWTR","EPHEMERIS_TYPE":"0","OBJECT_ID":"2022-125E","REV_AT_EPOCH":"130","FILE":"3609636","ARG_OF_PERICENTER":"28.1802","COUNTRY_CODE":"US","MEAN_MOTION_DDOT":"0.0000000000000","CLASSIFICATION_TYPE":"U","DECAY_DATE":null}];
